#dP2021  2 27  0  0  0.00000000      96 __u+U ITR00 FIT  IAC
## 2146 518400.00000000   900.00000000 59272 0.0000000000000
+  127   C01C02C03C04C05C06C07C08C09C10C11C12C13C14C16C19C20
+        C21C22C23C24C25C26C27C28C29C30C32C33C34C35C36C37C38
+        C39C40C41C42C43C44C45C46C60E01E02E03E04E05E07E08E09
+        E11E12E13E14E15E18E19E21E24E25E26E27E30E31E33E36G01
+        G02G03G04G05G06G07G08G09G10G11G12G13G14G15G16G17G18
+        G19G20G21G22G23G24G25G26G27G28G29G30G31G32J01J02J03
+        J07R01R02R03R04R05R06R07R08R09R10R11R12R13R14R15R16
+        R17R18R19R20R21R22R23R24  0  0  0  0  0  0  0  0  0
++        13 13 13 13 13  9  9 10  9  9  9  9  9  9  9  8  8
++         8  8  8  8  8  8  8  8  8  8  9  8  8  9  9  9  9
++         9  9  9  9  9 10  9  9 15  5  4  5  5  5  4  5  4
++         5  4  5  5  5  5  4  5  5  5  5  4  5  5  5  5  4
++         4  3  4  4  4  4  4  4  4  5  4  4  4  4  4  3  4
++         4  4  4  4  4  4  4  4  4  4  4  4  4  4  9  9  8
++        13  8  6  6  5  6 13  6  6  6  0  8  6  8  6  6  7
++         6  6  8  8  6  8 13  6  0  0  0  0  0  0  0  0  0
%c M  cc GPS ccc cccc cccc cccc cccc ccccc ccccc ccccc ccccc
%c cc cc ccc ccc cccc cccc cccc cccc ccccc ccccc ccccc ccccc
%f  0.0000000  0.000000000  0.00000000000  0.000000000000000
%f  0.0000000  0.000000000  0.00000000000  0.000000000000000
%i    0    0    0    0      0      0      0      0         0
%i    0    0    0    0      0      0      0      0         0
/* INFORMATION & ANALYSIS CENTER (IAC)            RAPID DATA
/* S/V CLOCKS ARE ALIGNED TO GNSS TIME                      
/* G:C1WC2W R:C1PC2P E:C1XC5X C:C2IC6I J:C1CC2S             
/* PCV:IGS14_2134 OL/AL:FES2004  NONE     YN ORB:CoN CLK:CoN
*  2021 02 27  2 15  0.00000000
PC01 -34396.016646  24402.971235     99.415945   -703.505985
PC02   4442.598486  41922.201708   -200.354506    480.660702
PC03 -14695.587467  39534.138380   -905.100251   -430.421328
PC04 -39645.010226  14347.075869   -635.465478   -116.092697
PC05  21948.327878  36018.373292    -67.941238   -837.800470
PC06 -20707.417088  24142.803969  27876.752220    128.450049
PC07 -16660.305688  38232.477413   8069.965279   -366.525446
PC08  -6177.742263  23355.835263 -34358.884104   -907.611356
PC09  -4946.439808  25004.622281  33798.787984    705.085731
PC10  -6845.573018  41592.813007  -4384.298506    -79.878307
PC11   5640.715213 -15119.178542  22827.144481   -899.357581
PC12  23057.373619  -9263.846238  12724.635492    826.820625
PC13   6945.054695  32057.882627 -26226.817147    158.635058
PC14   8335.915069 -25875.470569  -6148.096706    272.730737
PC16 -17813.826596  24353.928243  29462.728815   -712.266223
PC19   -756.141524  23811.951117  14572.064408    742.680741
PC20 -13630.457740  24308.414836  -1688.218950   -920.739328
PC21  18980.685730 -10183.225566  17750.972576   -858.190346
PC22  12901.481098   9531.751191  22842.192845   -895.222554
PC23 -19211.519255 -18072.203835   9122.629247   -875.965745
PC24   6940.129189 -17067.324336 -20980.420971   -769.652601
PC25  -9890.697199 -24874.962990  -7933.573893   -947.847585
PC26  17939.651528   -625.793592 -21366.996790    942.763803
PC27 -27380.982442   3630.449507  -3914.272526    490.051586
PC28 -23038.694747  -8413.381050  13318.274805   -104.661034
PC29   5789.423457  15274.344864 -22630.535696    357.928142
PC30 -15608.504548  13924.726631 -18460.433748    448.249873
PC32 -18904.838219  10357.930417 -17709.076381   -901.637020
PC33    691.055566 -23840.690473 -14467.329733   -954.163720
PC34  15022.014437 -14127.860841  18809.239620   -730.794407
PC35  23151.512894   7813.289247 -13517.253513   -398.992556
PC36   9034.817627  25082.044535   8256.272905   -749.268651
PC37 -18303.692939   -731.150182  21069.121079   -869.293486
PC38  -4917.466812  26815.994419 -32102.786005    132.577032
PC39 -16273.671062  25467.071110  29356.920293     28.863175
PC40 -13194.875954  40042.806511  -2683.610283    135.673865
PC41 -12792.261625  -9759.442329 -22751.328656   -929.862787
PC42  14029.917622 -23995.803383   2441.254752   -898.669698
PC43  -5145.474771 -15501.393171  22621.186728   -616.149242
PC44  27329.340549  -4416.131018   3672.218581     59.414449
PC45  19225.185294  17980.411960  -9229.060511    372.957056
PC46  -6142.382338  17636.031710  20723.725435    386.735192
PC60   7304.526894  41497.520883  -1677.734224     -1.016898
PE01   1578.594071 -28800.013067  -6681.845252  -1054.654057
PE02  -1499.511973  28810.329491   6567.727562    201.334265
PE03  -9885.451401  22096.767687  17041.323203   -403.145043
PE04  -9762.492622 -14028.819511 -24163.356973   -718.193044
PE05 -24013.641004  17306.430657   -188.908387   -301.256720
PE07  24000.434553  -2464.357887  17148.240775   -506.089539
PE08  10035.145948  13656.981068  24269.197156   6040.958104
PE09 -23998.519447   2827.498729 -17101.866140   5751.983302
PE11 -27898.570632  -7793.051240  -6039.403221   6269.582225
PE12 -19554.101380 -17889.852239  13166.904879   5335.997661
PE13  27939.934843   7996.914089   5660.067437    412.749842
PE14 -26602.250818   5665.869754   4906.503661  -1343.931899
PE15  19695.789549  17765.682339 -13135.340673    827.285694
PE18  23943.392739   5668.241024 -16240.055828  -1469.319943
PE19  12057.019906 -22155.114606 -15490.739854    213.915297
PE21  12566.602890 -16507.127791 -21121.905008   -650.712539
PE24 -16658.182029  -6670.498397  23530.698563   -765.184665
PE25 -12648.867478  16310.614813  21213.362405   -527.299331
PE26  19249.882724  -7007.689682  21377.281687   2101.571860
PE27  16687.415932   5770.648252 -23755.368140     21.361151
PE30  10477.694088  25071.183749 -11727.309905   3148.620518
PE31 -10977.689523 -24534.348885  12411.954541   -478.674667
PE33    155.836009 -17067.313193  24193.576972   -466.053861
PE36 -19738.279612   6447.707125 -21079.693677    435.197119
PG01  22342.570605  14454.400327   2464.207596    752.737627
PG02  -7282.213619 -19015.245607  17697.891211   -580.982387
PG03  13156.053521  10311.567333  20586.243080    -93.883600
PG04  19796.307065   4818.198553  17072.481367   -182.947517
PG05  -4635.673126 -24542.311920  -8914.288232    -34.796069
PG06   6157.241945 -13656.526456  21993.486322     -1.441121
PG07  21916.709843   3178.176504 -14675.071106     72.653252
PG08  13858.147853   9265.717922 -20740.299731    -11.802017
PG09  24789.416910  -5492.305067   7770.890784   -326.575802
PG10 -11654.619371  19049.435298 -14060.360831    -70.118111
PG11  22012.235146  10968.736276 -10007.529380    -13.339338
PG12 -10359.486999 -15231.911723  18944.293348     -6.722856
PG13  -3047.760260 -14837.182875 -21948.734846    101.828755
PG14  13254.585365 -17514.518845 -14937.134267     98.965093
PG15 -15434.695580  -8503.789311 -20315.836645   -166.663124
PG16    261.148567  25278.020394  -7558.139326   -286.181934
PG17  20583.683739 -14309.341530   9194.571265    401.017618
PG18 -20063.773801   -118.707727 -17436.673375    348.941991
PG19  14939.501550 -15541.541857  15168.979026    -33.169895
PG20 -14924.383600   7413.869060 -20683.554395    524.501740
PG21  20509.653818  16432.990494  -4487.948124     98.939609
PG22  11297.570411  18663.261937  15463.780857   -671.190374
PG23 -14839.584639   8529.957237 -20319.900694    118.319743
PG24 -21270.038784 -16006.907873  -3104.341417      1.794664
PG25 -15142.979816    397.816559  21543.228364     88.591343
PG26  -4376.910827  25764.596526   3805.754175     50.720458
PG27    473.965903  15702.876884 -21517.590270    -84.147985
PG28  12336.493990 -19981.862135 -12028.610533    609.750955
PG29 -25147.016062   3654.758071   7757.619559   -302.422441
PG30  14366.044815  -8217.661197 -20763.653210   -390.814397
PG31  -4267.168404  15433.328611  21036.256978   -102.514661
PG32 -18858.071701  15987.645894   9573.418550     19.986619
PJ01 -26409.661457  32631.722697    160.937285   -343.744453
PJ02 -26210.211396  24089.661514  27482.366306      2.491591
PJ03 -33631.316135  17516.507063 -13810.605751     -1.122399
PJ07 -25381.329335  33659.316458     11.878808      0.064674
PR01   5994.947906 -19963.213285 -14692.570583     75.617224
PR02  -9551.656699  -5388.876377 -22986.242137    468.618278
PR03 -17389.516046  10612.414680 -15272.954174     31.451512
PR04 -15273.114399  20405.220311    953.643501     75.606729
PR05  -4709.705621  18725.511634  16667.133739     67.203752
PR06  10515.861219   4287.998451  22833.725300    193.441010
PR07  17556.531681 -11119.636515  14860.595676    -42.523189
PR08  15304.805018 -20400.132831   -858.249132    -57.615168
PR09  14005.534147  17338.373097 -12454.067997    -19.723505
PR10  12261.315060   1597.018712 -22312.483074 999999.999999
PR11   3258.977757 -15915.324608 -19656.139664      2.794631
PR12  -7401.549794 -23926.761801  -4889.945822    208.313498
PR13 -13826.556478 -17704.506012  12068.525429    -51.293261
PR14 -12037.407576   -689.395411  22483.073853     61.434820
PR15  -3367.853909  16209.241559  19417.308113    105.184699
PR16   8348.380560  23696.013149   3959.421453    -11.828450
PR17 -24704.127639   -510.858119  -6386.490840    403.543517
PR18 -14290.027823   6968.236748 -19907.465072     68.016276
PR19   2557.803466  10784.710129 -22969.142056   -133.653457
PR20  20991.748717   8796.671198 -11553.975540    -44.042805
PR21  24350.812617     32.561011   7567.224035   -190.628379
PR22  13414.523556  -7235.965482  20476.591788    -99.974026
PR23 -10477.111537 -10851.614323  20565.010436    368.646916
PR24 -21459.571217  -8527.942356  10866.077940     33.059948
EOF
